NOAA 1 [-]              
1 04793U 70106A   17288.23335990 -.00000053  00000-0 -50629-4 0  9993
2 04793 101.7893 352.6845 0031840  27.1681   7.6348 12.53982410144202
NOAA 2 [-]              
1 06235U 72082A   17288.41599188 -.00000024  00000-0  12891-3 0  9997
2 06235 101.6985 251.6149 0004187 109.7454  42.0505 12.53098572 58502
NOAA 3 [-]              
1 06920U 73086A   17288.52290770 -.00000023  00000-0  16182-3 0  9996
2 06920 101.9557 255.9249 0006139 211.3950 285.9315 12.40351169989273
NOAA 4 [-]              
1 07529U 74089A   17288.56860153 -.00000025  00000-0  11961-3 0  9990
2 07529 101.6570 255.0736 0008916 144.5589 344.7416 12.53115786962873
NOAA 5 [-]              
1 09057U 76077A   17288.44614310 -.00000054  00000-0 -81667-4 0  9990
2 09057 101.8440 266.5966 0010256  63.9968  87.9018 12.37761385862884
TIROS N [P]             
1 11060U 78096A   17288.55636830  .00000002  00000-0  22979-4 0  9995
2 11060  98.8809 338.7174 0010519   3.3558 356.7686 14.18171530229808
NOAA 6 [P]              
1 11416U 79057A   17288.52453022  .00000066  00000-0  40075-4 0  9992
2 11416  98.5902 275.4329 0009245 251.5383 108.4797 14.33441898997104
NOAA 7 [-]              
1 12553U 81059A   17288.62143944  .00000012  00000-0  28916-4 0  9991
2 12553  99.0640 272.5879 0010490 276.4061 194.1031 14.17225742876168
NOAA 8 [-]              
1 13923U 83022A   17288.61395683  .00000048  00000-0  36338-4 0  9999
2 13923  98.5235 275.8984 0015492 165.3264 194.8371 14.28608114798836
NOAA 9 [P]              
1 15427U 84123A   17288.47125609  .00000030  00000-0  37381-4 0  9996
2 15427  98.8140 231.0929 0014607 341.0372 156.5953 14.16013779695390
NOAA 10 [-]             
1 16969U 86073A   17288.56731959  .00000026  00000-0  27526-4 0  9990
2 16969  98.4629 293.5011 0011026 283.5755 228.9960 14.28021887617356
NOAA 11 [-]             
1 19531U 88089A   17288.59569141 -.00000014  00000-0  14393-4 0  9998
2 19531  98.5373 342.0468 0012102  56.1626 304.0699 14.15215141499531
NOAA 12 [-]             
1 21263U 91032A   17288.57526479  .00000016  00000-0  24996-4 0  9991
2 21263  98.5570 309.8371 0012587 292.2397  67.7448 14.25851624373623
NOAA 13 [-]             
1 22739U 93050A   17288.37335458 -.00000024  00000-0  93474-5 0  9993
2 22739  98.5464 331.7475 0009487 184.3977 175.7114 14.12691504246403
NOAA 14 [-]             
1 23455U 94089A   17288.60436600 -.00000033  00000-0  49669-5 0  9996
2 23455  98.6768   0.1644 0009739 165.8450 194.2998 14.14104617175618
NOAA 15 [B]             
1 25338U 98030A   17288.56545393  .00000035  00000-0  33662-4 0  9999
2 25338  98.7811 299.7103 0009968 212.5556 147.5010 14.25820783  9902
NOAA 16 [-]             
1 26536U 00055A   17288.57607562 -.00000007  00000-0  19556-4 0  9994
2 26536  98.8458   0.0173 0010154 345.9822  14.1067 14.13187783176401
NOAA 17 [-]             
1 27453U 02032A   17288.61300758  .00000014  00000-0  23997-4 0  9993
2 27453  98.4500 248.5419 0011101 202.5061 157.5634 14.24996873795906
NOAA 18 [B]             
1 28654U 05018A   17288.55891605  .00000030  00000-0  41504-4 0  9995
2 28654  99.1752 313.6724 0015326  94.4129 265.8793 14.12352806639158
NOAA 19 [+]             
1 33591U 09005A   17288.57309665  .00000112  00000-0  86238-4 0  9997
2 33591  99.1084 257.1958 0013115 296.3527  63.6297 14.12220051447383
NPP [+]                 
1 37849U 11061A   17288.62260976  .00000009  00000-0  25169-4 0  9990
2 37849  98.7099 225.6838 0001368 108.2803 354.7322 14.19549414309188
